{
  "norad_id": 67353,
  "name": "STARLINK-36474",
  "history": [
    {
      "epoch": "2026-03-28T19:28:22.036224Z",
      "apogee_km": 483.7749093113662,
      "perigee_km": 482.27286397006264,
      "latitude_deg": 2.8848829020938373e-05,
      "longitude_deg": 1.1638582904809416,
      "height_km": 482.3806391823586,
      "semi_major_axis_km": 6861.160886640714,
      "eccentricity": 0.00010946,
      "inclination_deg": 43.0034,
      "raan_deg": 119.4821,
      "arg_perigee_deg": 303.9993,
      "mean_anomaly_deg": 56.0755,
      "mean_motion_rev_day": 15.27588419
    },
    {
      "epoch": "2026-03-29T01:44:59.754048Z",
      "apogee_km": 483.3085949633096,
      "perigee_km": 482.68560398707723,
      "latitude_deg": -4.689516961434297e-05,
      "longitude_deg": -94.73137325763803,
      "height_km": 483.0621124776292,
      "semi_major_axis_km": 6861.134099475193,
      "eccentricity": 4.54e-05,
      "inclination_deg": 42.9992,
      "raan_deg": 118.0019,
      "arg_perigee_deg": 158.5407,
      "mean_anomaly_deg": 201.5463,
      "mean_motion_rev_day": 15.27597365
    }
  ]
}